OBJECT_NAME,OBJECT_ID,EPOCH,MEAN_MOTION,ECCENTRICITY,INCLINATION,RA_OF_ASC_NODE,ARG_OF_PERICENTER,MEAN_ANOMALY,EPHEMERIS_TYPE,CLASSIFICATION_TYPE,NORAD_CAT_ID,ELEMENT_SET_NO,REV_AT_EPOCH,BSTAR,MEAN_MOTION_DOT,MEAN_MOTION_DDOT
GPS BIIR-5  (PRN 22),2000-040A,2026-07-09T06:18:30.017088,2.00557788,.01206225,54.8492,214.2854,302.6709,80.4805,0,U,26407,999,19039,0,.108E-5,0
GPS BIIR-8  (PRN 16),2003-005A,2026-07-09T01:22:32.882592,2.00559332,.01481583,54.8798,214.0998,53.1389,317.7875,0,U,27663,999,17175,0,.108E-5,0
GPS BIIR-11 (PRN 19),2004-009A,2026-07-08T08:45:38.598048,2.00553955,.01169547,54.8121,274.8310,174.0325,209.7158,0,U,28190,999,16337,0,-.2E-6,0
GPS BIIR-13 (PRN 02),2004-045A,2026-07-07T17:49:07.665312,2.00556754,.01700568,55.1231,324.0687,316.8842,42.3770,0,U,28474,999,15884,0,-.72E-6,0
GPS BIIRM-1 (PRN 17),2005-038A,2026-07-09T07:20:20.067648,2.00564085,.01281428,54.8602,272.2841,296.3422,76.1359,0,U,28874,999,15228,0,-.11E-6,0
INMARSAT 4-F2 (SOUTHPAN/PRN 122),2005-044A,2026-07-09T07:29:27.140352,1.00271464,.0002965,5.1228,43.6476,56.5320,82.9247,0,U,28899,999,7574,0,-.251E-5,0
GPS BIIRM-2 (PRN 31),2006-042A,2026-07-09T02:49:39.464832,2.00568543,.01070153,54.7126,150.4682,54.9780,80.6146,0,U,29486,999,14483,0,.66E-6,0
GPS BIIRM-3 (PRN 12),2006-052A,2026-07-08T08:37:13.608192,2.00559276,.00848129,54.9329,213.1669,90.9771,270.0548,0,U,29601,999,14383,0,.105E-5,0
GPS BIIRM-4 (PRN 15),2007-047A,2026-07-09T03:55:06.157344,2.00554162,.01675879,54.1110,79.1599,87.8540,274.1065,0,U,32260,999,13725,0,-.4E-6,0
COSMOS 2433 (720),2007-052A,2026-07-08T23:17:51.480672,2.13104372,.00032831,65.5635,315.2012,202.4684,157.5248,0,U,32275,999,14552,0,-.55E-6,0
COSMOS 2432 (719),2007-052B,2026-07-09T07:09:12.284640,2.13103296,.00074713,65.5795,315.3184,324.5153,230.3911,0,U,32276,999,14555,0,-.57E-6,0
GPS BIIRM-5 (PRN 29),2007-062A,2026-07-08T10:56:34.227744,2.00561245,.00360062,55.0147,273.2970,167.0393,170.0598,0,U,32384,999,13593,0,-.16E-6,0
COSMOS 2434 (721),2007-065A,2026-07-08T21:10:36.963264,2.13101412,.00012747,64.3197,191.1839,326.7883,215.1474,0,U,32393,999,14423,0,.126E-5,0
COSMOS 2436 (723),2007-065C,2026-07-08T03:08:12.342624,2.13100210,.00172808,64.3283,191.2816,353.5222,103.9798,0,U,32395,999,14417,0,.125E-5,0
GPS BIIRM-6 (PRN 07),2008-012A,2026-07-09T01:44:27.570048,2.00572939,.02116251,54.4996,149.0505,248.0903,109.6271,0,U,32711,999,13419,0,.64E-6,0
GPS BIIRM-8 (PRN 05),2009-043A,2026-07-09T06:49:03.324864,2.00553039,.00537691,56.2241,26.5847,84.1312,76.7059,0,U,35752,999,12380,0,-.53E-6,0
COSMOS 2456 (730),2009-070A,2026-07-08T03:53:29.603616,2.13103862,.00038367,65.0231,70.2570,336.8240,170.8468,0,U,36111,999,12887,0,-.24E-6,0
COSMOS 2457 (733),2009-070B,2026-07-09T08:43:50.179872,2.13101250,.00038467,65.0094,70.0596,123.0305,353.6962,0,U,36112,999,12890,0,-.25E-6,0
COSMOS 2460 (732),2010-007C,2026-07-08T23:18:34.633152,2.13101759,.00018107,65.4066,313.7300,135.0435,42.4983,0,U,36402,999,12719,0,-.55E-6,0
GPS BIIF-1  (PRN 25),2010-022A,2026-07-08T11:03:54.573984,2.00563411,.01265958,54.2691,207.7050,66.1483,340.0151,0,U,36585,999,11802,0,.11E-5,0
BEIDOU-2 IGSO-1 (C06),2010-036A,2026-07-07T14:57:11.145024,1.00266308,.0059224,54.3062,162.7756,225.1869,229.2421,0,U,36828,999,5830,0,-.58E-6,0
BEIDOU-2 G4 (C04),2010-057A,2026-07-08T19:35:28.326048,1.00270552,.00052982,3.6970,68.8160,185.3883,126.3837,0,U,37210,999,5750,0,-.102E-5,0
BEIDOU-2 IGSO-2 (C07),2010-068A,2026-07-08T14:28:30.978048,1.00276139,.00567556,47.5085,271.5668,213.3757,127.0514,0,U,37256,999,5700,0,-.203E-5,0
BEIDOU-2 IGSO-3 (C08),2011-013A,2026-07-09T12:26:44.979360,1.00261852,.0035198,62.4382,39.9419,183.2390,357.7550,0,U,37384,999,5588,0,-.172E-5,0
GSAT-8 (GAGAN/PRN 127),2011-022A,2026-07-09T05:21:38.899296,1.00271255,.00025803,2.1848,81.5580,166.1048,174.9877,0,U,37605,999,5343,0,.96E-6,0
BEIDOU-2 IGSO-4 (C09),2011-038A,2026-07-08T22:10:32.983104,1.00281046,.01601663,54.6042,165.4802,231.4337,316.7492,0,U,37763,999,5486,0,.47E-6,0
GSAT0101 (GALILEO-PFM),2011-060A,2026-07-08T13:14:56.643936,1.70475585,.0002415,56.9869,341.1826,60.6868,299.3373,0,U,37846,999,9148,0,-.74E-6,0
GSAT0102 (GALILEO-FM2),2011-060B,2026-07-08T11:27:00.571680,1.70475862,.00024239,56.9877,341.1851,11.7755,347.8886,0,U,37847,999,9148,0,-.74E-6,0
COSMOS 2476 (744),2011-064A,2026-07-08T07:52:37.668864,2.13103973,.00224004,65.2814,72.1581,236.6261,306.7703,0,U,37867,999,11421,0,-.23E-6,0
COSMOS 2477 (745),2011-064B,2026-07-07T03:43:01.051392,2.13103195,.00193967,65.2873,72.2772,237.9015,305.6247,0,U,37868,999,11418,0,-.2E-6,0
COSMOS 2475 (743),2011-064C,2026-07-08T04:12:39.803616,2.13101995,.0025048,65.2947,72.2646,251.6541,309.8644,0,U,37869,999,11421,0,-.23E-6,0
